
{"lat": 40.75368539999999, "lng": -73.9991637, "zipcode": 10001, "area": "Chelsea and Clinton"}
{"lat": 40.7464969, "lng": -74.0094471, "zipcode": 10011, "area": "Chelsea and Clinton"}
{"lat": 40.755322, "lng": -73.9932872, "zipcode": 10018, "area": "Chelsea and Clinton"}
{"lat": 40.7686973, "lng": -73.9918181, "zipcode": 10019, "area": "Chelsea and Clinton"}
{"lat": 40.7605505, "lng": -73.98226830000002, "zipcode": 10020, "area": "Chelsea and Clinton"}
{"lat": 40.7602619, "lng": -73.9932872, "zipcode": 10036, "area": "Chelsea and Clinton"}
{"lat": 40.8032131, "lng": -73.95258249999999, "zipcode": 10026, "area": "Central Harlem"}
{"lat": 40.8138912, "lng": -73.96243270000001, "zipcode": 10027, "area": "Central Harlem"}
{"lat": 40.8173411, "lng": -73.9433299, "zipcode": 10030, "area": "Central Harlem"}
{"lat": 40.8140369, "lng": -73.9374517, "zipcode": 10037, "area": "Central Harlem"}
{"lat": 40.8288377, "lng": -73.9374517, "zipcode": 10039, "area": "Central Harlem"}
{"lat": 40.79164069999999, "lng": -73.9447994, "zipcode": 10029, "area": "East Harlem"}
{"lat": 40.794065, "lng": -73.9271644, "zipcode": 10035, "area": "East Harlem"}
{"lat": 40.7250632, "lng": -73.9976946, "zipcode": 10012, "area": "Greenwich Village and SoHo"}
{"lat": 40.7217861, "lng": -74.0094471, "zipcode": 10013, "area": "Greenwich Village and SoHo"}
{"lat": 40.7366138, "lng": -74.0094471, "zipcode": 10014, "area": "Greenwich Village and SoHo"}
{"lat": 40.7388319, "lng": -73.98153370000001, "zipcode": 10010, "area": "Gramercy Park and Murray Hill"}
{"lat": 40.74727, "lng": -73.9800645, "zipcode": 10016, "area": "Gramercy Park and Murray Hill"}
{"lat": 40.7519846, "lng": -73.9697795, "zipcode": 10017, "area": "Gramercy Park and Murray Hill"}
{"lat": 40.7593941, "lng": -73.9697795, "zipcode": 10022, "area": "Gramercy Park and Murray Hill"}
{"lat": 40.7038704, "lng": -74.0138541, "zipcode": 10004, "area": "Lower Manhattan"}
{"lat": 40.6998433, "lng": -74.0072436, "zipcode": 10005, "area": "Lower Manhattan"}
{"lat": 40.709329, "lng": -74.0131196, "zipcode": 10006, "area": "Lower Manhattan"}
{"lat": 40.7136487, "lng": -74.0087126, "zipcode": 10007, "area": "Lower Manhattan"}
{"lat": 40.7071498, "lng": -74.0021019, "zipcode": 10038, "area": "Lower Manhattan"}
{"lat": 40.7084274, "lng": -74.0173484, "zipcode": 10280, "area": "Lower Manhattan"}
{"lat": 40.7135097, "lng": -73.9859414, "zipcode": 10002, "area": "Lower East Side"}
{"lat": 40.7322535, "lng": -73.9874105, "zipcode": 10003, "area": "Lower East Side"}
{"lat": 40.7275043, "lng": -73.9800645, "zipcode": 10009, "area": "Lower East Side"}
{"lat": 40.7700703, "lng": -73.9580246, "zipcode": 10021, "area": "Upper East Side"}
{"lat": 40.77664120000001, "lng": -73.9521468, "zipcode": 10028, "area": "Upper East Side"}
{"lat": 40.7573053, "lng": -73.9550857, "zipcode": 10044, "area": "Upper East Side"}
{"lat": 40.7645239, "lng": -73.96243270000001, "zipcode": 10065, "area": "Upper East Side"}
{"lat": 40.7728432, "lng": -73.9558204, "zipcode": 10075, "area": "Upper East Side"}
{"lat": 40.7826039, "lng": -73.9506774, "zipcode": 10128, "area": "Upper East Side"}
{"lat": 40.8270209, "lng": -73.9506774, "zipcode": 10031, "area": "Inwood and Washington Heights"}
{"lat": 40.8409822, "lng": -73.9447994, "zipcode": 10032, "area": "Inwood and Washington Heights"}
{"lat": 40.8557765, "lng": -73.9447994, "zipcode": 10033, "area": "Inwood and Washington Heights"}
{"lat": 40.8721452, "lng": -73.92128579999999, "zipcode": 10034, "area": "Inwood and Washington Heights"}
{"lat": 40.8639624, "lng": -73.93304289999999, "zipcode": 10040, "area": "Inwood and Washington Heights"}